NORAD_CAT_ID,OBJECT_NAME,OBJECT_TYPE,EPOCH,MEAN_MOTION,ECCENTRICITY,INCLINATION,RA_OF_ASC_NODE,ARG_OF_PERICENTER,MEAN_ANOMALY,BSTAR,MEAN_MOTION_DOT,MEAN_MOTION_DDOT,TLE_LINE0,TLE_LINE1,TLE_LINE2,SEMIMAJOR_AXIS,PERIOD,APOGEE,PERIGEE,DECAYED
56464.0,STARLINK-6043,PAYLOAD,2024-08-17 04:44:25,14.98353068,0.0002745,70.0016,140.2725,265.6726,94.4119,6.9829e-05,7.41e-06,0.0,0 STARLINK-6043,1 56464U 23064S   24230.19751417  .00000741  00000-0  69829-4 0  9996,2 56464  70.0016 140.2725 0002745 265.6726  94.4119 14.98353068 70309,6950.122,96.106,573.894,570.079,0.0
56464.0,STARLINK-6043,PAYLOAD,2024-08-18 04:46:26,14.98336919,0.0002528,70.0013,137.7468,255.434,104.6539,-0.00010438,-1.338e-05,0.0,0 STARLINK-6043,1 56464U 23064S   24231.19891991 -.00001338  00000-0 -10438-3 0  9995,2 56464  70.0013 137.7468 0002528 255.4340 104.6539 14.98336919 70451,6950.171,96.107,573.793,570.279,0.0
56464.0,STARLINK-6043,PAYLOAD,2024-08-18 20:47:46,14.98347944,0.0003013,70.0,136.0607,266.2912,93.7902,3.4052e-05,3.13e-06,0.0,0 STARLINK-6043,1 56464U 23064S   24231.86650594  .00000313  00000-0  34052-4 0  9990,2 56464  70.0000 136.0607 0003013 266.2912  93.7902 14.98347944 70552,6950.137,96.106,574.096,569.908,0.0
56464.0,STARLINK-6043,PAYLOAD,2024-08-18 22:23:54,14.98347491,0.0002914,70.0003,135.8925,263.2432,96.8395,7.314e-05,7.8e-06,0.0,0 STARLINK-6043,1 56464U 23064S   24231.93326521  .00000780  00000-0  73140-4 0  9997,2 56464  70.0003 135.8925 0002914 263.2432  96.8395 14.98347491 70207,6950.139,96.106,574.029,569.979,0.0
56464.0,STARLINK-6043,PAYLOAD,2024-08-19 11:12:58,14.98338896,0.000262,70.0028,134.5473,273.464,86.6219,0.00016756,1.907e-05,0.0,0 STARLINK-6043,1 56464U 23064S   24232.46734880  .00001907  00000-0  16756-3 0  9998,2 56464  70.0028 134.5473 0002620 273.4640  86.6219 14.98338896 70645,6950.165,96.106,573.851,570.209,0.0
56464.0,STARLINK-6043,PAYLOAD,2024-08-19 20:49:47,14.98321953,0.0002965,70.0021,133.5362,273.2969,86.785,-0.00021758,-2.688e-05,0.0,0 STARLINK-6043,1 56464U 23064S   24232.86791523 -.00002688  00000-0 -21758-3 0  9996,2 56464  70.0021 133.5362 0002965 273.2969  86.7850 14.98321953 70703,6950.218,96.108,574.144,570.022,0.0
56464.0,STARLINK-6043,PAYLOAD,2024-08-20 03:14:20,14.98327969,0.0002878,70.0023,132.8635,274.0531,86.0299,-3.3964e-05,-4.98e-06,0.0,0 STARLINK-6043,1 56464U 23064S   24233.13495375 -.00000498  00000-0 -33964-4 0  9993,2 56464  70.0023 132.8635 0002878 274.0531  86.0299 14.98327969 70744,6950.199,96.107,574.064,570.064,0.0
56464.0,STARLINK-6043,PAYLOAD,2024-08-21 03:16:20,14.98352612,0.0003076,70.0019,130.3384,274.6135,85.4673,0.0013937,0.00016586,0.0,0 STARLINK-6043,1 56464U 23064S   24234.13635018  .00016586  00000-0  13937-2 0  9993,2 56464  70.0019 130.3384 0003076 274.6135  85.4673 14.98352612 70898,6950.123,96.106,574.126,569.85,0.0
56464.0,STARLINK-6043,PAYLOAD,2024-08-21 20:53:49,14.9833924,0.0003208,70.0014,128.4874,272.6351,87.4441,0.00052474,6.175e-05,0.0,0 STARLINK-6043,1 56464U 23064S   24234.87071142  .00006175  00000-0  52474-3 0  9999,2 56464  70.0014 128.4874 0003208 272.6351  87.4441 14.98339240 71001,6950.164,96.106,574.259,569.8,0.0
